{
    "links": {
        "self": "http://www.neowsapp.com/rest/v1/neo/54017579?api_key=iIulBulltgU6a56xZRHN4H3l9WmuAYTsLGpBGhQ2"
    },
    "id": "54017579",
    "neo_reference_id": "54017579",
    "name": "(2020 MQ1)",
    "designation": "2020 MQ1",
    "nasa_jpl_url": "http://ssd.jpl.nasa.gov/sbdb.cgi?sstr=54017579",
    "absolute_magnitude_h": 25.064,
    "estimated_diameter": {
        "kilometers": {
            "estimated_diameter_min": 0.0258080372,
            "estimated_diameter_max": 0.0577085256
        },
        "meters": {
            "estimated_diameter_min": 25.8080372335,
            "estimated_diameter_max": 57.70852562
        },
        "miles": {
            "estimated_diameter_min": 0.0160363659,
            "estimated_diameter_max": 0.0358584043
        },
        "feet": {
            "estimated_diameter_min": 84.6720408773,
            "estimated_diameter_max": 189.3324391952
        }
    },
    "is_potentially_hazardous_asteroid": false,
    "close_approach_data": [
        {
            "close_approach_date": "2020-06-12",
            "close_approach_date_full": "2020-Jun-12 07:38",
            "epoch_date_close_approach": 1591947480000,
            "relative_velocity": {
                "kilometers_per_second": "7.5001576019",
                "kilometers_per_hour": "27000.5673670145",
                "miles_per_hour": "16777.1025397985"
            },
            "miss_distance": {
                "astronomical": "0.1017506728",
                "lunar": "39.5810117192",
                "kilometers": "15221683.921946936",
                "miles": "9458315.8011662768"
            },
            "orbiting_body": "Earth"
        }
    ],
    "orbital_data": {
        "orbit_id": "1",
        "orbit_determination_date": "2020-06-22 20:12:03",
        "first_observation_date": "2020-06-21",
        "last_observation_date": "2020-06-22",
        "data_arc_in_days": 1,
        "observations_used": 13,
        "orbit_uncertainty": "9",
        "minimum_orbit_intersection": ".0804007",
        "jupiter_tisserand_invariant": "3.473",
        "epoch_osculation": "2459022.5",
        "eccentricity": ".5112130138852783",
        "semi_major_axis": "2.208626206461433",
        "inclination": "4.163898266508526",
        "ascending_node_longitude": "103.6374403086218",
        "orbital_period": "1198.896682209288",
        "perihelion_distance": "1.079547746910275",
        "perihelion_argument": "138.9755478471996",
        "aphelion_distance": "3.337704666012591",
        "perihelion_time": "2458998.096668241709",
        "mean_anomaly": "7.327736879541343",
        "mean_motion": ".3002760832873468",
        "equinox": "J2000",
        "orbit_class": {
            "orbit_class_type": "AMO",
            "orbit_class_description": "Near-Earth asteroid orbits similar to that of 1221 Amor",
            "orbit_class_range": "1.017 AU < q (perihelion) < 1.3 AU"
        }
    },
    "is_sentry_object": false
}